[{"OBJECT_NAME":"STARLINK-5097","OBJECT_ID":"2022-125AH","EPOCH":"2026-03-09T16:38:02.132736","MEAN_MOTION":15.08825907,"ECCENTRICITY":0.00011408,"INCLINATION":53.2175,"RA_OF_ASC_NODE":214.0638,"ARG_OF_PERICENTER":95.0305,"MEAN_ANOMALY":265.0817,"EPHEMERIS_TYPE":0,"CLASSIFICATION_TYPE":"U","NORAD_CAT_ID":53995,"ELEMENT_SET_NO":999,"REV_AT_EPOCH":18945,"BSTAR":-6.8599483e-5,"MEAN_MOTION_DOT":-1.379e-5,"MEAN_MOTION_DDOT":0},{"OBJECT_NAME":"STARLING 3","OBJECT_ID":"2023-100D","EPOCH":"2026-03-09T22:41:57.048288","MEAN_MOTION":15.11145977,"ECCENTRICITY":0.00066311,"INCLINATION":99.5096,"RA_OF_ASC_NODE":65.6477,"ARG_OF_PERICENTER":76.1122,"MEAN_ANOMALY":284.0839,"EPHEMERIS_TYPE":0,"CLASSIFICATION_TYPE":"U","NORAD_CAT_ID":57389,"ELEMENT_SET_NO":999,"REV_AT_EPOCH":14507,"BSTAR":0.00051487914,"MEAN_MOTION_DOT":8.551e-5,"MEAN_MOTION_DDOT":0}]
